start=new Date('2022-05-01T00:00:00.000Z').valueOf();
sats=[{"SITE":"AFETR","REF_FRAME":"TEME","ECCENTRICITY":"0.00018590","OBJECT_NAME":"STARLINK-1688","INCLINATION":"53.0537","CENTER_NAME":"EARTH","EPHEMERIS_TYPE":"0","LAUNCH_DATE":"2020-09-03","FILE":"3423346","MEAN_MOTION_DDOT":"0.0000000000000","ARG_OF_PERICENTER":"51.6872","CLASSIFICATION_TYPE":"U","MEAN_ANOMALY":"308.4284","OBJECT_TYPE":"PAYLOAD","MEAN_ELEMENT_THEORY":"SGP4","COUNTRY_CODE":"US","REV_AT_EPOCH":"9222","EPOCH":"2022-04-30T16:24:32.428224","OBJECT_ID":"2020-062AY","NORAD_CAT_ID":"46371","APOAPSIS":"548.560","PERIOD":"95.593","ELEMENT_SET_NO":"999","GP_ID":"202389601","RA_OF_ASC_NODE":"201.8796","TLE_LINE1":"1 46371U 20062AY  22120.68370866 -.00001257  00000-0 -65508-4 0  9997","BSTAR":"-0.00006550800000","TLE_LINE2":"2 46371  53.0537 201.8796 0001859  51.6872 308.4284 15.06380600 92224","RCS_SIZE":"LARGE","MEAN_MOTION_DOT":"-0.00001257","SEMIMAJOR_AXIS":"6925.408","PERIAPSIS":"545.986","DECAY_DATE":null,"TIME_SYSTEM":"UTC","MEAN_MOTION":"15.06380600"},{"RA_OF_ASC_NODE":"221.8400","GP_ID":"202388349","ELEMENT_SET_NO":"999","PERIOD":"95.593","TLE_LINE1":"1 46372U 20062AZ  22120.69292364 -.00002437  00000-0 -14480-3 0  9998","OBJECT_ID":"2020-062AZ","APOAPSIS":"548.477","NORAD_CAT_ID":"46372","MEAN_MOTION_DOT":"-0.00002437","SEMIMAJOR_AXIS":"6925.404","MEAN_MOTION":"15.06381977","DECAY_DATE":null,"TIME_SYSTEM":"UTC","PERIAPSIS":"546.060","RCS_SIZE":"LARGE","BSTAR":"-0.00014480000000","TLE_LINE2":"2 46372  53.0545 221.8400 0001745  52.5565 307.5583 15.06381977 91949","EPHEMERIS_TYPE":"0","CENTER_NAME":"EARTH","INCLINATION":"53.0545","MEAN_MOTION_DDOT":"0.0000000000000","FILE":"3423346","LAUNCH_DATE":"2020-09-03","REF_FRAME":"TEME","SITE":"AFETR","ECCENTRICITY":"0.00017450","OBJECT_NAME":"STARLINK-1689","EPOCH":"2022-04-30T16:37:48.602496","REV_AT_EPOCH":"9194","CLASSIFICATION_TYPE":"U","ARG_OF_PERICENTER":"52.5565","COUNTRY_CODE":"US","OBJECT_TYPE":"PAYLOAD","MEAN_ANOMALY":"307.5583","MEAN_ELEMENT_THEORY":"SGP4"},{"APOAPSIS":"548.144","NORAD_CAT_ID":"46374","OBJECT_ID":"2020-062BB","TLE_LINE1":"1 46374U 20062BB  22120.77307902  .00000142  00000-0  28459-4 0  9995","RA_OF_ASC_NODE":"151.5025","GP_ID":"202389100","PERIOD":"95.592","ELEMENT_SET_NO":"999","RCS_SIZE":"LARGE","TLE_LINE2":"2 46374  53.0547 151.5025 0001323  72.9698 287.1436 15.06395358 92938","BSTAR":"0.00002845900000","MEAN_MOTION":"15.06395358","TIME_SYSTEM":"UTC","DECAY_DATE":null,"PERIAPSIS":"546.312","SEMIMAJOR_AXIS":"6925.363","MEAN_MOTION_DOT":"0.00000142","OBJECT_NAME":"STARLINK-1711","ECCENTRICITY":"0.00013230","REF_FRAME":"TEME","SITE":"AFETR","MEAN_MOTION_DDOT":"0.0000000000000","FILE":"3423346","LAUNCH_DATE":"2020-09-03","EPHEMERIS_TYPE":"0","CENTER_NAME":"EARTH","INCLINATION":"53.0547","COUNTRY_CODE":"US","OBJECT_TYPE":"PAYLOAD","MEAN_ELEMENT_THEORY":"SGP4","MEAN_ANOMALY":"287.1436","CLASSIFICATION_TYPE":"U","ARG_OF_PERICENTER":"72.9698","EPOCH":"2022-04-30T18:33:14.027328","REV_AT_EPOCH":"9293"},{"TLE_LINE1":"1 46375U 20062BC  22120.85372454 -.00000505  00000-0 -14989-4 0  9997","PERIOD":"95.593","ELEMENT_SET_NO":"999","RA_OF_ASC_NODE":"176.1182","GP_ID":"202389351","NORAD_CAT_ID":"46375","APOAPSIS":"548.641","OBJECT_ID":"2020-062BC","PERIAPSIS":"545.846","MEAN_MOTION":"15.06390237","DECAY_DATE":null,"TIME_SYSTEM":"UTC","MEAN_MOTION_DOT":"-0.00000505","SEMIMAJOR_AXIS":"6925.378","RCS_SIZE":"LARGE","TLE_LINE2":"2 46375  53.0538 176.1182 0002018  39.9957 320.1180 15.06390237 92596","BSTAR":"-0.00001498900000","FILE":"3423346","LAUNCH_DATE":"2020-09-03","MEAN_MOTION_DDOT":"0.0000000000000","EPHEMERIS_TYPE":"0","CENTER_NAME":"EARTH","INCLINATION":"53.0538","OBJECT_NAME":"STARLINK-1724","ECCENTRICITY":"0.00020180","SITE":"AFETR","REF_FRAME":"TEME","REV_AT_EPOCH":"9259","EPOCH":"2022-04-30T20:29:21.800256","COUNTRY_CODE":"US","OBJECT_TYPE":"PAYLOAD","MEAN_ANOMALY":"320.1180","MEAN_ELEMENT_THEORY":"SGP4","CLASSIFICATION_TYPE":"U","ARG_OF_PERICENTER":"39.9957"},{"FILE":"3422880","LAUNCH_DATE":"2020-09-03","MEAN_MOTION_DDOT":"0.0000000000000","INCLINATION":"53.0550","CENTER_NAME":"EARTH","EPHEMERIS_TYPE":"0","OBJECT_NAME":"STARLINK-1742","ECCENTRICITY":"0.00018620","SITE":"AFETR","REF_FRAME":"TEME","REV_AT_EPOCH":"9254","EPOCH":"2022-04-30T12:52:53.074560","OBJECT_TYPE":"PAYLOAD","MEAN_ANOMALY":"312.9556","MEAN_ELEMENT_THEORY":"SGP4","COUNTRY_CODE":"US","CLASSIFICATION_TYPE":"U","ARG_OF_PERICENTER":"47.1590","TLE_LINE1":"1 46376U 20062BD  22120.53672540 -.00002519  00000-0 -15031-3 0  9997","PERIOD":"95.593","ELEMENT_SET_NO":"999","GP_ID":"202352987","RA_OF_ASC_NODE":"177.5573","NORAD_CAT_ID":"46376","APOAPSIS":"548.533","OBJECT_ID":"2020-062BD","PERIAPSIS":"545.954","DECAY_DATE":null,"TIME_SYSTEM":"UTC","MEAN_MOTION":"15.06390335","MEAN_MOTION_DOT":"-0.00002519","SEMIMAJOR_AXIS":"6925.378","BSTAR":"-0.00015031000000","TLE_LINE2":"2 46376  53.0550 177.5573 0001862  47.1590 312.9556 15.06390335 92540","RCS_SIZE":"LARGE"},{"TLE_LINE1":"1 46380U 20062BH  22120.70213030 -.00001442  00000-0 -77920-4 0  9996","RA_OF_ASC_NODE":"201.8131","GP_ID":"202388850","PERIOD":"95.593","ELEMENT_SET_NO":"999","APOAPSIS":"548.507","NORAD_CAT_ID":"46380","OBJECT_ID":"2020-062BH","MEAN_MOTION":"15.06387890","TIME_SYSTEM":"UTC","DECAY_DATE":null,"PERIAPSIS":"545.994","MEAN_MOTION_DOT":"-0.00001442","SEMIMAJOR_AXIS":"6925.386","RCS_SIZE":"LARGE","BSTAR":"-0.00007792000000","TLE_LINE2":"2 46380  53.0559 201.8131 0001814  47.0707 313.0434 15.06387890 92225","MEAN_MOTION_DDOT":"0.0000000000000","FILE":"3423346","LAUNCH_DATE":"2020-09-03","EPHEMERIS_TYPE":"0","CENTER_NAME":"EARTH","INCLINATION":"53.0559","OBJECT_NAME":"STARLINK-1758","ECCENTRICITY":"0.00018140","REF_FRAME":"TEME","SITE":"AFETR","EPOCH":"2022-04-30T16:51:04.057920","REV_AT_EPOCH":"9222","COUNTRY_CODE":"US","OBJECT_TYPE":"PAYLOAD","MEAN_ANOMALY":"313.0434","MEAN_ELEMENT_THEORY":"SGP4","CLASSIFICATION_TYPE":"U","ARG_OF_PERICENTER":"47.0707"},{"SEMIMAJOR_AXIS":"6925.356","MEAN_MOTION_DOT":"-0.00001302","TIME_SYSTEM":"UTC","DECAY_DATE":null,"MEAN_MOTION":"15.06397690","PERIAPSIS":"545.887","TLE_LINE2":"2 46382  53.0542 176.0096 0001926  46.4257 313.6891 15.06397690 92603","BSTAR":"-0.00006849000000","RCS_SIZE":"LARGE","GP_ID":"202388600","RA_OF_ASC_NODE":"176.0096","PERIOD":"95.592","ELEMENT_SET_NO":"999","TLE_LINE1":"1 46382U 20062BK  22120.88320262 -.00001302  00000-0 -68490-4 0  9990","OBJECT_ID":"2020-062BK","APOAPSIS":"548.554","NORAD_CAT_ID":"46382","EPOCH":"2022-04-30T21:11:48.706368","REV_AT_EPOCH":"9260","ARG_OF_PERICENTER":"46.4257","CLASSIFICATION_TYPE":"U","OBJECT_TYPE":"PAYLOAD","MEAN_ELEMENT_THEORY":"SGP4","MEAN_ANOMALY":"313.6891","COUNTRY_CODE":"US","INCLINATION":"53.0542","CENTER_NAME":"EARTH","EPHEMERIS_TYPE":"0","MEAN_MOTION_DDOT":"0.0000000000000","FILE":"3423346","LAUNCH_DATE":"2020-09-03","REF_FRAME":"TEME","SITE":"AFETR","OBJECT_NAME":"STARLINK-1769","ECCENTRICITY":"0.00019260"},{"OBJECT_ID":"2020-062BL","NORAD_CAT_ID":"46383","APOAPSIS":"548.304","ELEMENT_SET_NO":"999","PERIOD":"95.593","GP_ID":"202389852","RA_OF_ASC_NODE":"221.9567","TLE_LINE1":"1 46383U 20062BL  22120.67079830 -.00002195  00000-0 -12853-3 0  9992","BSTAR":"-0.00012853000000","TLE_LINE2":"2 46383  53.0554 221.9567 0001544  63.3285 296.7862 15.06393131 91935","RCS_SIZE":"LARGE","SEMIMAJOR_AXIS":"6925.370","MEAN_MOTION_DOT":"-0.00002195","PERIAPSIS":"546.165","DECAY_DATE":null,"TIME_SYSTEM":"UTC","MEAN_MOTION":"15.06393131","SITE":"AFETR","REF_FRAME":"TEME","ECCENTRICITY":"0.00015440","OBJECT_NAME":"STARLINK-1770","INCLINATION":"53.0554","EPHEMERIS_TYPE":"0","CENTER_NAME":"EARTH","FILE":"3423346","LAUNCH_DATE":"2020-09-03","MEAN_MOTION_DDOT":"0.0000000000000","ARG_OF_PERICENTER":"63.3285","CLASSIFICATION_TYPE":"U","OBJECT_TYPE":"PAYLOAD","MEAN_ANOMALY":"296.7862","MEAN_ELEMENT_THEORY":"SGP4","COUNTRY_CODE":"US","REV_AT_EPOCH":"9193","EPOCH":"2022-04-30T16:05:56.973120"},{"EPOCH":"2022-04-30T16:11:15.751968","REV_AT_EPOCH":"9193","OBJECT_TYPE":"PAYLOAD","MEAN_ANOMALY":"286.4746","MEAN_ELEMENT_THEORY":"SGP4","COUNTRY_CODE":"US","ARG_OF_PERICENTER":"73.6447","CLASSIFICATION_TYPE":"U","MEAN_MOTION_DDOT":"0.0000000000000","FILE":"3423346","LAUNCH_DATE":"2020-09-03","INCLINATION":"53.0562","EPHEMERIS_TYPE":"0","CENTER_NAME":"EARTH","OBJECT_NAME":"STARLINK-1771","ECCENTRICITY":"0.00018550","REF_FRAME":"TEME","SITE":"AFETR","DECAY_DATE":null,"TIME_SYSTEM":"UTC","MEAN_MOTION":"15.06387369","PERIAPSIS":"545.968","MEAN_MOTION_DOT":"-0.00003394","SEMIMAJOR_AXIS":"6925.387","TLE_LINE2":"2 46384  53.0562 221.9407 0001855  73.6447 286.4746 15.06387369 91930","BSTAR":"-0.00020909000000","RCS_SIZE":"LARGE","TLE_LINE1":"1 46384U 20062BM  22120.67448787 -.00003394  00000-0 -20909-3 0  9997","GP_ID":"202389602","RA_OF_ASC_NODE":"221.9407","ELEMENT_SET_NO":"999","PERIOD":"95.593","APOAPSIS":"548.537","NORAD_CAT_ID":"46384","OBJECT_ID":"2020-062BM"},{"REV_AT_EPOCH":"8716","EPOCH":"2022-04-30T20:57:52.089984","COUNTRY_CODE":"US","OBJECT_TYPE":"PAYLOAD","MEAN_ELEMENT_THEORY":"SGP4","MEAN_ANOMALY":"279.8179","ARG_OF_PERICENTER":"80.2959","CLASSIFICATION_TYPE":"U","LAUNCH_DATE":"2020-10-06","FILE":"3423346","MEAN_MOTION_DDOT":"0.0000000000000","CENTER_NAME":"EARTH","EPHEMERIS_TYPE":"0","INCLINATION":"53.0564","ECCENTRICITY":"0.00013180","OBJECT_NAME":"STARLINK-1644","SITE":"AFETR","REF_FRAME":"TEME","PERIAPSIS":"546.340","MEAN_MOTION":"15.06387134","TIME_SYSTEM":"UTC","DECAY_DATE":null,"MEAN_MOTION_DOT":"-0.00002256","SEMIMAJOR_AXIS":"6925.388","RCS_SIZE":"LARGE","BSTAR":"-0.00013265000000","TLE_LINE2":"2 46532  53.0564  21.0367 0001318  80.2959 279.8179 15.06387134 87163","TLE_LINE1":"1 46532U 20070A   22120.87351956 -.00002256  00000-0 -13265-3 0  9997","PERIOD":"95.593","ELEMENT_SET_NO":"999","RA_OF_ASC_NODE":"21.0367","GP_ID":"202390117","NORAD_CAT_ID":"46532","APOAPSIS":"548.166","OBJECT_ID":"2020-070A"}];
